NORAD_CAT_ID,OBJECT_NAME,OBJECT_TYPE,EPOCH,MEAN_MOTION,ECCENTRICITY,INCLINATION,RA_OF_ASC_NODE,ARG_OF_PERICENTER,MEAN_ANOMALY,BSTAR,MEAN_MOTION_DOT,MEAN_MOTION_DDOT,TLE_LINE0,TLE_LINE1,TLE_LINE2,SEMIMAJOR_AXIS,PERIOD,APOGEE,PERIGEE,DECAYED
53909.0,STARLINK-4796,PAYLOAD,2023-10-21 21:46:56,15.0884807,0.0001654,53.2175,258.9843,82.197,277.921,0.00032,4.81e-05,0.0,0 STARLINK-4796,1 53909U 22119Z   23294.90760021  .00004810  00000-0  32000-3 0  9997,2 53909  53.2175 258.9843 0001654  82.1970 277.9210 15.08848070 60514,6917.856,95.437,540.865,538.577,0.0
53909.0,STARLINK-4796,PAYLOAD,2023-10-22 04:08:28,15.08858287,0.0001697,53.2173,257.7957,78.3329,281.7853,0.00045553,6.973e-05,0.0,0 STARLINK-4796,1 53909U 22119Z   23295.17255648  .00006973  00000-0  45553-3 0  9990,2 53909  53.2173 257.7957 0001697  78.3329 281.7853 15.08858287 60132,6917.824,95.436,540.863,538.516,0.0
53909.0,STARLINK-4796,PAYLOAD,2023-10-22 07:19:14,15.08864945,0.000158,53.2168,257.1993,91.3682,268.7491,0.00069468,0.00010793,0.0,0 STARLINK-4796,1 53909U 22119Z   23295.30503364  .00010793  00000-0  69468-3 0  9992,2 53909  53.2168 257.1993 0001580  91.3682 268.7491 15.08864945 60577,6917.804,95.436,540.762,538.576,0.0
53909.0,STARLINK-4796,PAYLOAD,2023-10-23 02:23:53,15.08840121,0.0001437,53.2163,253.6321,98.6181,261.4974,0.00011478,1.539e-05,0.0,0 STARLINK-4796,1 53909U 22119Z   23296.09991955  .00001539  00000-0  11478-3 0  9992,2 53909  53.2163 253.6321 0001437  98.6181 261.4974 15.08840121 60276,6917.88,95.438,540.739,538.751,0.0
53909.0,STARLINK-4796,PAYLOAD,2023-10-23 03:59:16,15.08838308,0.0001456,53.2164,253.3347,100.5683,259.5473,0.00010705,1.416e-05,0.0,0 STARLINK-4796,1 53909U 22119Z   23296.16616000  .00001416  00000-0  10705-3 0  9991,2 53909  53.2164 253.3347 0001456 100.5683 259.5473 15.08838308 60707,6917.886,95.438,540.758,538.743,0.0
53909.0,STARLINK-4796,PAYLOAD,2023-10-24 03:50:03,15.08841231,0.0001487,53.2169,248.8754,106.5595,253.556,0.00048423,7.427e-05,0.0,0 STARLINK-4796,1 53909U 22119Z   23297.15976568  .00007427  00000-0  48423-3 0  9995,2 53909  53.2169 248.8754 0001487 106.5595 253.5560 15.08841231 60435,6917.877,95.437,540.77,538.713,0.0
53909.0,STARLINK-4796,PAYLOAD,2023-10-24 13:22:22,15.0884037,0.0001378,53.216,247.0893,106.2934,253.821,0.00029515,4.413e-05,0.0,0 STARLINK-4796,1 53909U 22119Z   23297.55720569  .00004413  00000-0  29515-3 0  9990,2 53909  53.2160 247.0893 0001378 106.2934 253.8210 15.08840370 60915,6917.879,95.438,540.698,538.791,0.0
53909.0,STARLINK-4796,PAYLOAD,2023-10-25 05:16:13,15.08843847,0.0001599,53.2179,244.1183,106.7384,253.3783,0.0002649,3.931e-05,0.0,0 STARLINK-4796,1 53909U 22119Z   23298.21960625  .00003931  00000-0  26490-3 0  9996,2 53909  53.2179 244.1183 0001599 106.7384 253.3783 15.08843847 60590,6917.869,95.437,540.84,538.627,0.0
53909.0,STARLINK-4796,PAYLOAD,2023-10-26 05:07:00,15.08860539,0.0001438,53.2168,239.656,97.1181,262.9975,0.00049839,7.657e-05,0.0,0 STARLINK-4796,1 53909U 22119Z   23299.21319844  .00007657  00000-0  49839-3 0  9999,2 53909  53.2168 239.6560 0001438  97.1181 262.9975 15.08860539 61166,6917.818,95.436,540.677,538.688,0.0
53909.0,STARLINK-4796,PAYLOAD,2023-10-27 04:57:47,15.08859995,0.0001516,53.217,235.1936,92.8189,267.2977,0.00053215,8.196e-05,0.0,0 STARLINK-4796,1 53909U 22119Z   23300.20679519  .00008196  00000-0  53215-3 0  9991,2 53909  53.2170 235.1936 0001516  92.8189 267.2977 15.08859995 60897,6917.819,95.436,540.733,538.636,0.0
53909.0,STARLINK-4796,PAYLOAD,2023-10-27 12:54:42,15.08839732,0.0001568,53.2164,233.7082,95.9928,264.1243,-4.5785e-05,-1.017e-05,0.0,0 STARLINK-4796,1 53909U 22119Z   23300.53799742 -.00001017  00000-0 -45785-4 0  9999,2 53909  53.2164 233.7082 0001568  95.9928 264.1243 15.08839732 61360,6917.881,95.438,540.831,538.661,0.0
53909.0,STARLINK-4796,PAYLOAD,2023-10-27 19:16:15,15.08832484,0.0002171,53.2158,232.5183,94.4239,265.7001,0.00030054,4.497e-05,0.0,0 STARLINK-4796,1 53909U 22119Z   23300.80296259  .00004497  00000-0  30054-3 0  9999,2 53909  53.2158 232.5183 0002171  94.4239 265.7001 15.08832484 60985,6917.903,95.438,541.27,538.266,0.0
53909.0,STARLINK-4796,PAYLOAD,2023-10-28 12:45:31,15.08834535,0.0001569,53.2178,229.2467,100.4904,259.6265,0.00066415,0.00010296,0.0,0 STARLINK-4796,1 53909U 22119Z   23301.53160976  .00010296  00000-0  66415-3 0  9990,2 53909  53.2178 229.2467 0001569 100.4904 259.6265 15.08834535 61515,6917.897,95.438,540.848,538.677,0.0
53909.0,STARLINK-4796,PAYLOAD,2023-10-29 01:28:36,15.08845961,0.0001781,53.217,226.8694,93.1637,266.9559,0.00086893,0.0001357,0.0,0 STARLINK-4796,1 53909U 22119Z   23302.06153159  .00013570  00000-0  86893-3 0  9994,2 53909  53.2170 226.8694 0001781  93.1637 266.9559 15.08845961 61173,6917.862,95.437,540.959,538.495,0.0
53909.0,STARLINK-4796,PAYLOAD,2023-10-29 12:36:18,15.08843221,0.0001912,53.2169,224.7872,88.1706,271.9506,0.00045624,6.981e-05,0.0,0 STARLINK-4796,1 53909U 22119Z   23302.52521279  .00006981  00000-0  45624-3 0  9992,2 53909  53.2169 224.7872 0001912  88.1706 271.9506 15.08843221 61246,6917.871,95.437,541.058,538.413,0.0
53909.0,STARLINK-4796,PAYLOAD,2023-10-29 22:08:37,15.08849374,0.0001747,53.2178,223.0042,85.5298,274.5894,0.00047304,7.25e-05,0.0,0 STARLINK-4796,1 53909U 22119Z   23302.92265069  .00007250  00000-0  47304-3 0  9995,2 53909  53.2178 223.0042 0001747  85.5298 274.5894 15.08849374 61727,6917.852,95.437,540.925,538.508,0.0
53909.0,STARLINK-4796,PAYLOAD,2023-10-30 18:48:37,15.08835503,0.0001313,53.2163,219.1362,101.3361,258.7779,-6.0997e-05,-1.258e-05,0.0,0 STARLINK-4796,1 53909U 22119Z   23303.78377110 -.00001258  00000-0 -60997-4 0  9999,2 53909  53.2163 219.1362 0001313 101.3361 258.7779 15.08835503 61432,6917.894,95.438,540.667,538.851,0.0
53909.0,STARLINK-4796,PAYLOAD,2023-10-30 21:59:24,15.08838861,0.0001557,53.2161,218.5416,103.0012,257.1154,5.6373e-05,6.09e-06,0.0,0 STARLINK-4796,1 53909U 22119Z   23303.91625165  .00000609  00000-0  56373-4 0  9990,2 53909  53.2161 218.5416 0001557 103.0012 257.1154 15.08838861 61873,6917.884,95.438,540.826,538.672,0.0
53909.0,STARLINK-4796,PAYLOAD,2023-10-31 01:10:10,15.08840827,0.0001478,53.2163,217.9471,99.9296,260.1863,0.00011348,1.519e-05,0.0,0 STARLINK-4796,1 53909U 22119Z   23304.04873137  .00001519  00000-0  11348-3 0  9992,2 53909  53.2163 217.9471 0001478  99.9296 260.1863 15.08840827 61896,6917.878,95.438,540.765,538.72,0.0
53909.0,STARLINK-4796,PAYLOAD,2023-10-31 21:50:11,15.08840615,0.0001405,53.2166,214.082,103.1182,256.9967,0.00021729,3.172e-05,0.0,0 STARLINK-4796,1 53909U 22119Z   23304.90985452  .00003172  00000-0  21729-3 0  9992,2 53909  53.2166 214.0820 0001405 103.1182 256.9967 15.08840615 62026,6917.879,95.438,540.715,538.772,0.0
53909.0,STARLINK-4796,PAYLOAD,2023-11-01 04:11:43,15.08850389,0.0001339,53.2162,212.8937,103.9175,256.1966,0.00062093,9.611e-05,0.0,0 STARLINK-4796,1 53909U 22119Z   23305.17481286  .00009611  00000-0  62093-3 0  9991,2 53909  53.2162 212.8937 0001339 103.9175 256.1966 15.08850389 61640,6917.849,95.437,540.64,538.787,0.0
53909.0,STARLINK-4796,PAYLOAD,2023-11-01 10:33:16,15.08847011,0.0001337,53.2164,211.7023,92.9007,267.2138,0.00061382,9.496e-05,0.0,0 STARLINK-4796,1 53909U 22119Z   23305.43977415  .00009496  00000-0  61382-3 0  9995,2 53909  53.2164 211.7023 0001337  92.9007 267.2138 15.08847011 62109,6917.859,95.437,540.649,538.799,0.0
53909.0,STARLINK-4796,PAYLOAD,2023-11-01 18:30:12,15.08845271,0.0001721,53.2168,210.2184,90.7124,269.4066,0.00030567,4.581e-05,0.0,0 STARLINK-4796,1 53909U 22119Z   23305.77097522  .00004581  00000-0  30567-3 0  9995,2 53909  53.2168 210.2184 0001721  90.7124 269.4066 15.08845271 61736,6917.864,95.437,540.92,538.539,0.0
53909.0,STARLINK-4796,PAYLOAD,2023-11-01 21:40:58,15.08845755,0.0001519,53.2175,209.6255,98.6405,261.4759,0.00028875,4.311e-05,0.0,0 STARLINK-4796,1 53909U 22119Z   23305.90345438  .00004311  00000-0  28875-3 0  9992,2 53909  53.2175 209.6255 0001519  98.6405 261.4759 15.08845755 62176,6917.863,95.437,540.779,538.677,0.0
53909.0,STARLINK-4796,PAYLOAD,2023-11-02 10:24:03,15.08850244,0.000152,53.217,207.2461,92.7732,267.3434,0.00036288,5.494e-05,0.0,0 STARLINK-4796,1 53909U 22119Z   23306.43337155  .00005494  00000-0  36288-3 0  9998,2 53909  53.2170 207.2461 0001520  92.7732 267.3434 15.08850244 62257,6917.849,95.437,540.766,538.663,0.0
53909.0,STARLINK-4796,PAYLOAD,2023-11-02 18:20:59,15.08836718,0.0001295,53.2158,205.7546,75.9868,284.1268,-0.00010136,-1.901e-05,0.0,0 STARLINK-4796,1 53909U 22119Z   23306.76457296 -.00001901  00000-0 -10136-3 0  9998,2 53909  53.2158 205.7546 0001295  75.9868 284.1268 15.08836718 61882,6917.89,95.438,540.651,538.86,0.0
53909.0,STARLINK-4796,PAYLOAD,2023-11-02 21:31:45,15.08842381,0.0001454,53.2166,205.1605,87.992,272.1239,8.2511e-05,1.026e-05,0.0,0 STARLINK-4796,1 53909U 22119Z   23306.89705169  .00001026  00000-0  82511-4 0  9990,2 53909  53.2166 205.1605 0001454  87.9920 272.1239 15.08842381 62328,6917.873,95.437,540.744,538.732,0.0
53909.0,STARLINK-4796,PAYLOAD,2023-11-03 02:17:54,15.08849662,0.0001596,53.2166,204.2684,84.3523,275.7651,0.00033577,5.061e-05,0.0,0 STARLINK-4796,1 53909U 22119Z   23307.09577019  .00005061  00000-0  33577-3 0  9994,2 53909  53.2166 204.2684 0001596  84.3523 275.7651 15.08849662 61934,6917.851,95.437,540.82,538.612,0.0
53909.0,STARLINK-4796,PAYLOAD,2023-11-03 21:22:32,15.08841851,0.0001613,53.2166,200.7007,105.1105,255.0065,0.00017138,2.441e-05,0.0,0 STARLINK-4796,1 53909U 22119Z   23307.89065169  .00002441  00000-0  17138-3 0  9994,2 53909  53.2166 200.7007 0001613 105.1105 255.0065 15.08841851 62474,6917.875,95.437,540.856,538.624,0.0
53909.0,STARLINK-4796,PAYLOAD,2023-11-04 02:08:41,15.08847047,0.0001544,53.2159,199.8074,95.2149,264.9019,0.00040323,6.136e-05,0.0,0 STARLINK-4796,1 53909U 22119Z   23308.08937109  .00006136  00000-0  40323-3 0  9995,2 53909  53.2159 199.8074 0001544  95.2149 264.9019 15.08847047 62086,6917.859,95.437,540.792,538.656,0.0
